start=new Date('2022-01-27T00:00:00.000Z').valueOf();
sats=[{"OBJECT_TYPE":"PAYLOAD","BSTAR":"0.00006946000000","PERIOD":"95.592","EPOCH":"2022-01-26T12:47:14.841024","REV_AT_EPOCH":"8233","OBJECT_ID":"2020-055F","MEAN_MOTION_DOT":"0.00000753","COUNTRY_CODE":"US","CLASSIFICATION_TYPE":"U","ELEMENT_SET_NO":"999","GP_ID":"194677958","MEAN_ELEMENT_THEORY":"SGP4","REF_FRAME":"TEME","DECAY_DATE":null,"MEAN_MOTION":"15.06408223","FILE":"3284266","TIME_SYSTEM":"UTC","LAUNCH_DATE":"2020-08-07","OBJECT_NAME":"STARLINK-1555","MEAN_MOTION_DDOT":"0.0000000000000","CENTER_NAME":"EARTH","RA_OF_ASC_NODE":"34.5425","NORAD_CAT_ID":"46032","PERIAPSIS":"546.157","MEAN_ANOMALY":"287.1949","EPHEMERIS_TYPE":"0","SEMIMAJOR_AXIS":"6925.323","RCS_SIZE":"LARGE","TLE_LINE1":"1 46032U 20055F   22026.53281066  .00000753  00000-0  69460-4 0  9994","SITE":"AFETR","INCLINATION":"53.0543","APOAPSIS":"548.220","ARG_OF_PERICENTER":"72.9202","TLE_LINE2":"2 46032  53.0543  34.5425 0001489  72.9202 287.1949 15.06408223 82331","ECCENTRICITY":"0.00014890"},{"FILE":"3284396","MEAN_MOTION":"15.06407437","TIME_SYSTEM":"UTC","LAUNCH_DATE":"2020-08-07","MEAN_MOTION_DDOT":"0.0000000000000","OBJECT_NAME":"STARLINK-1556","CENTER_NAME":"EARTH","RA_OF_ASC_NODE":"33.7430","GP_ID":"194686022","MEAN_ELEMENT_THEORY":"SGP4","DECAY_DATE":null,"REF_FRAME":"TEME","OBJECT_ID":"2020-055G","MEAN_MOTION_DOT":"0.00001041","COUNTRY_CODE":"US","ELEMENT_SET_NO":"999","CLASSIFICATION_TYPE":"U","OBJECT_TYPE":"PAYLOAD","BSTAR":"0.00008875400000","EPOCH":"2022-01-26T17:07:19.953696","PERIOD":"95.592","REV_AT_EPOCH":"8184","SITE":"AFETR","INCLINATION":"53.0559","APOAPSIS":"548.081","ARG_OF_PERICENTER":"64.6592","TLE_LINE2":"2 46033  53.0559  33.7430 0001285  64.6592 295.4530 15.06407437 81849","ECCENTRICITY":"0.00012850","RCS_SIZE":"LARGE","TLE_LINE1":"1 46033U 20055G   22026.71342539  .00001041  00000-0  88754-4 0  9996","PERIAPSIS":"546.301","MEAN_ANOMALY":"295.4530","EPHEMERIS_TYPE":"0","SEMIMAJOR_AXIS":"6925.326","NORAD_CAT_ID":"46033"},{"RCS_SIZE":"LARGE","TLE_LINE1":"1 46034U 20055H   22026.38538949  .00000727  00000-0  67681-4 0  9998","ECCENTRICITY":"0.00014960","TLE_LINE2":"2 46034  53.0557  35.2248 0001496  68.7555 291.3594 15.06396801 82286","APOAPSIS":"548.259","INCLINATION":"53.0557","SITE":"AFETR","ARG_OF_PERICENTER":"68.7555","NORAD_CAT_ID":"46034","SEMIMAJOR_AXIS":"6925.358","EPHEMERIS_TYPE":"0","MEAN_ANOMALY":"291.3594","PERIAPSIS":"546.187","REF_FRAME":"TEME","DECAY_DATE":null,"GP_ID":"194678960","MEAN_ELEMENT_THEORY":"SGP4","MEAN_MOTION_DDOT":"0.0000000000000","OBJECT_NAME":"STARLINK-1557","RA_OF_ASC_NODE":"35.2248","CENTER_NAME":"EARTH","MEAN_MOTION":"15.06396801","FILE":"3284266","TIME_SYSTEM":"UTC","LAUNCH_DATE":"2020-08-07","REV_AT_EPOCH":"8228","EPOCH":"2022-01-26T09:14:57.651936","PERIOD":"95.592","OBJECT_TYPE":"PAYLOAD","BSTAR":"0.00006768100000","CLASSIFICATION_TYPE":"U","ELEMENT_SET_NO":"999","OBJECT_ID":"2020-055H","COUNTRY_CODE":"US","MEAN_MOTION_DOT":"0.00000727"},{"NORAD_CAT_ID":"46035","PERIAPSIS":"546.306","MEAN_ANOMALY":"280.3905","SEMIMAJOR_AXIS":"6925.340","EPHEMERIS_TYPE":"0","TLE_LINE1":"1 46035U 20055J   22026.39275950  .00000403  00000-0  45924-4 0  9997","RCS_SIZE":"LARGE","ARG_OF_PERICENTER":"79.7230","INCLINATION":"53.0547","SITE":"AFETR","APOAPSIS":"548.105","TLE_LINE2":"2 46035  53.0547  35.1750 0001299  79.7230 280.3905 15.06402690 82318","ECCENTRICITY":"0.00012990","BSTAR":"0.00004592400000","OBJECT_TYPE":"PAYLOAD","PERIOD":"95.592","EPOCH":"2022-01-26T09:25:34.420800","REV_AT_EPOCH":"8231","COUNTRY_CODE":"US","MEAN_MOTION_DOT":"0.00000403","OBJECT_ID":"2020-055J","ELEMENT_SET_NO":"999","CLASSIFICATION_TYPE":"U","MEAN_ELEMENT_THEORY":"SGP4","GP_ID":"194679210","DECAY_DATE":null,"REF_FRAME":"TEME","LAUNCH_DATE":"2020-08-07","FILE":"3284266","MEAN_MOTION":"15.06402690","TIME_SYSTEM":"UTC","CENTER_NAME":"EARTH","RA_OF_ASC_NODE":"35.1750","MEAN_MOTION_DDOT":"0.0000000000000","OBJECT_NAME":"STARLINK-1558"},{"FILE":"3284266","MEAN_MOTION":"15.06404490","TIME_SYSTEM":"UTC","LAUNCH_DATE":"2020-08-07","OBJECT_NAME":"STARLINK-1560","MEAN_MOTION_DDOT":"0.0000000000000","RA_OF_ASC_NODE":"34.6412","CENTER_NAME":"EARTH","GP_ID":"194677459","MEAN_ELEMENT_THEORY":"SGP4","DECAY_DATE":null,"REF_FRAME":"TEME","OBJECT_ID":"2020-055K","MEAN_MOTION_DOT":"0.00000066","COUNTRY_CODE":"US","CLASSIFICATION_TYPE":"U","ELEMENT_SET_NO":"999","OBJECT_TYPE":"PAYLOAD","BSTAR":"0.00002331500000","REV_AT_EPOCH":"8233","PERIOD":"95.592","EPOCH":"2022-01-26T12:15:25.234272","APOAPSIS":"548.223","INCLINATION":"53.0544","SITE":"AFETR","ARG_OF_PERICENTER":"66.1493","ECCENTRICITY":"0.00014780","TLE_LINE2":"2 46036  53.0544  34.6412 0001478  66.1493 293.9651 15.06404490 82335","RCS_SIZE":"LARGE","TLE_LINE1":"1 46036U 20055K   22026.51070873  .00000066  00000-0  23315-4 0  9994","PERIAPSIS":"546.176","EPHEMERIS_TYPE":"0","SEMIMAJOR_AXIS":"6925.335","MEAN_ANOMALY":"293.9651","NORAD_CAT_ID":"46036"},{"ECCENTRICITY":"0.00014860","TLE_LINE2":"2 46037  53.0560  33.7862 0001486  76.2716 283.8438 15.06398434 81848","APOAPSIS":"548.247","INCLINATION":"53.0560","SITE":"AFETR","ARG_OF_PERICENTER":"76.2716","RCS_SIZE":"LARGE","TLE_LINE1":"1 46037U 20055L   22026.70606259  .00000646  00000-0  62286-4 0  9993","EPHEMERIS_TYPE":"0","SEMIMAJOR_AXIS":"6925.353","MEAN_ANOMALY":"283.8438","PERIAPSIS":"546.189","NORAD_CAT_ID":"46037","MEAN_MOTION_DDOT":"0.0000000000000","OBJECT_NAME":"STARLINK-1565","RA_OF_ASC_NODE":"33.7862","CENTER_NAME":"EARTH","FILE":"3284401","MEAN_MOTION":"15.06398434","TIME_SYSTEM":"UTC","LAUNCH_DATE":"2020-08-07","DECAY_DATE":null,"REF_FRAME":"TEME","GP_ID":"194686585","MEAN_ELEMENT_THEORY":"SGP4","ELEMENT_SET_NO":"999","CLASSIFICATION_TYPE":"U","OBJECT_ID":"2020-055L","COUNTRY_CODE":"US","MEAN_MOTION_DOT":"0.00000646","REV_AT_EPOCH":"8184","EPOCH":"2022-01-26T16:56:43.807776","PERIOD":"95.592","BSTAR":"0.00006228600000","OBJECT_TYPE":"PAYLOAD"},{"GP_ID":"194678461","MEAN_ELEMENT_THEORY":"SGP4","DECAY_DATE":null,"REF_FRAME":"TEME","FILE":"3284266","MEAN_MOTION":"15.06399993","TIME_SYSTEM":"UTC","LAUNCH_DATE":"2020-08-07","OBJECT_NAME":"STARLINK-1567","MEAN_MOTION_DDOT":"0.0000000000000","CENTER_NAME":"EARTH","RA_OF_ASC_NODE":"35.2081","BSTAR":"0.00008251700000","OBJECT_TYPE":"PAYLOAD","PERIOD":"95.592","EPOCH":"2022-01-26T09:20:15.917568","REV_AT_EPOCH":"8230","OBJECT_ID":"2020-055M","COUNTRY_CODE":"US","MEAN_MOTION_DOT":"0.00000948","ELEMENT_SET_NO":"999","CLASSIFICATION_TYPE":"U","RCS_SIZE":"LARGE","TLE_LINE1":"1 46038U 20055M   22026.38907312  .00000948  00000-0  82517-4 0  9996","SITE":"AFETR","INCLINATION":"53.0556","APOAPSIS":"548.216","ARG_OF_PERICENTER":"85.1105","TLE_LINE2":"2 46038  53.0556  35.2081 0001448  85.1105 275.0049 15.06399993 82307","ECCENTRICITY":"0.00014480","NORAD_CAT_ID":"46038","PERIAPSIS":"546.211","MEAN_ANOMALY":"275.0049","SEMIMAJOR_AXIS":"6925.349","EPHEMERIS_TYPE":"0"},{"PERIAPSIS":"546.048","EPHEMERIS_TYPE":"0","SEMIMAJOR_AXIS":"6925.363","MEAN_ANOMALY":"286.6037","NORAD_CAT_ID":"46039","ARG_OF_PERICENTER":"73.5139","APOAPSIS":"548.408","SITE":"AFETR","INCLINATION":"53.0550","ECCENTRICITY":"0.00017040","TLE_LINE2":"2 46039  53.0550  33.6855 0001704  73.5139 286.6037 15.06395404 81842","TLE_LINE1":"1 46039U 20055N   22026.72818877  .00002968  00000-0  21807-3 0  9990","RCS_SIZE":"LARGE","COUNTRY_CODE":"US","MEAN_MOTION_DOT":"0.00002968","OBJECT_ID":"2020-055N","CLASSIFICATION_TYPE":"U","ELEMENT_SET_NO":"999","OBJECT_TYPE":"PAYLOAD","BSTAR":"0.00021807000000","REV_AT_EPOCH":"8184","EPOCH":"2022-01-26T17:28:35.509728","PERIOD":"95.592","LAUNCH_DATE":"2020-08-07","MEAN_MOTION":"15.06395404","FILE":"3284402","TIME_SYSTEM":"UTC","RA_OF_ASC_NODE":"33.6855","CENTER_NAME":"EARTH","OBJECT_NAME":"STARLINK-1569","MEAN_MOTION_DDOT":"0.0000000000000","MEAN_ELEMENT_THEORY":"SGP4","GP_ID":"194686610","DECAY_DATE":null,"REF_FRAME":"TEME"},{"ARG_OF_PERICENTER":"68.0718","INCLINATION":"53.0558","SITE":"AFETR","APOAPSIS":"548.226","TLE_LINE2":"2 46040  53.0558  35.0467 0001502  68.0718 292.0430 15.06409069 82274","ECCENTRICITY":"0.00015020","TLE_LINE1":"1 46040U 20055P   22026.42594031  .00000684  00000-0  64825-4 0  9993","RCS_SIZE":"LARGE","PERIAPSIS":"546.146","MEAN_ANOMALY":"292.0430","SEMIMAJOR_AXIS":"6925.321","EPHEMERIS_TYPE":"0","NORAD_CAT_ID":"46040","LAUNCH_DATE":"2020-08-07","MEAN_MOTION":"15.06409069","FILE":"3284266","TIME_SYSTEM":"UTC","CENTER_NAME":"EARTH","RA_OF_ASC_NODE":"35.0467","MEAN_MOTION_DDOT":"0.0000000000000","OBJECT_NAME":"STARLINK-1576","MEAN_ELEMENT_THEORY":"SGP4","GP_ID":"194677959","DECAY_DATE":null,"REF_FRAME":"TEME","MEAN_MOTION_DOT":"0.00000684","COUNTRY_CODE":"US","OBJECT_ID":"2020-055P","CLASSIFICATION_TYPE":"U","ELEMENT_SET_NO":"999","BSTAR":"0.00006482500000","OBJECT_TYPE":"PAYLOAD","EPOCH":"2022-01-26T10:13:21.242784","PERIOD":"95.592","REV_AT_EPOCH":"8227"},{"OBJECT_TYPE":"PAYLOAD","BSTAR":"0.00021127000000","REV_AT_EPOCH":"8228","EPOCH":"2022-01-26T10:17:17.549376","PERIOD":"95.592","OBJECT_ID":"2020-055Q","MEAN_MOTION_DOT":"0.00002867","COUNTRY_CODE":"US","ELEMENT_SET_NO":"999","CLASSIFICATION_TYPE":"U","GP_ID":"194677710","MEAN_ELEMENT_THEORY":"SGP4","DECAY_DATE":null,"REF_FRAME":"TEME","TIME_SYSTEM":"UTC","FILE":"3284266","MEAN_MOTION":"15.06401466","LAUNCH_DATE":"2020-08-07","MEAN_MOTION_DDOT":"0.0000000000000","OBJECT_NAME":"STARLINK-1580","RA_OF_ASC_NODE":"35.0349","CENTER_NAME":"EARTH","NORAD_CAT_ID":"46041","PERIAPSIS":"546.265","SEMIMAJOR_AXIS":"6925.344","EPHEMERIS_TYPE":"0","MEAN_ANOMALY":"299.4341","RCS_SIZE":"LARGE","TLE_LINE1":"1 46041U 20055Q   22026.42867534  .00002867  00000-0  21127-3 0  9997","APOAPSIS":"548.153","SITE":"AFETR","INCLINATION":"53.0554","ARG_OF_PERICENTER":"60.6784","ECCENTRICITY":"0.00013630","TLE_LINE2":"2 46041  53.0554  35.0349 0001363  60.6784 299.4341 15.06401466 82282"}];
